0 ORBCOMM FM 22
1 25476U 98053B   13282.74143639  .00000654  00000-0  30145-3 0  9410
2 25476 045.0086 185.4035 0000977 245.6348 162.0160 14.30578575785258
0 ORBCOMM FM 22
1 25476U 98053B   13284.16213149  .00000692  00000-0  31582-3 0  9421
2 25476 045.0084 178.7493 0000970 245.5693 285.8231 14.30581219785458
0 ORBCOMM FM 22
1 25476U 98053B   13285.20396568  .00000476  00000-0  23398-3 0  9431
2 25476 045.0084 173.8695 0000917 240.8653 261.2331 14.30583101785601
0 ORBCOMM FM 22
1 25476U 98053B   13286.72099470  .00000391  00000-0  20154-3 0  9445
2 25476 045.0082 166.7641 0000913 239.0034 163.4682 14.30585475785822
0 ORBCOMM FM 22
1 25476U 98053B   13288.13659141  .00000755  00000-0  33989-3 0  9454
2 25476 045.0082 160.1338 0000922 238.8119 261.1588 14.30588912786027
0 ORBCOMM FM 22
1 25476U 98053B   13289.65252784  .00000695  00000-0  31692-3 0  9467
2 25476 045.0081 153.0333 0000943 237.7330 157.0177 14.30590709786246
0 ORBCOMM FM 22
1 25476U 98053B   13291.14130343  .00000801  00000-0  35717-3 0  9472
2 25476 045.0082 146.0601 0000956 235.1954 274.3331 14.30592784786458
0 ORBCOMM FM 22
1 25476U 98053B   13292.45270030  .00000951  00000-0  41417-3 0  9486
2 25476 045.0082 139.9175 0001002 236.6629 193.2483 14.30594661786647
0 ORBCOMM FM 22
1 25476U 98053B   13293.77763293  .00001014  00000-0  43821-3 0  9493
2 25476 045.0083 133.7116 0001020 235.5241 184.5544 14.30597480786837
0 ORBCOMM FM 22
1 25476U 98053B   13294.98335277  .00000982  00000-0  42580-3 0  9500
2 25476 045.0084 128.0640 0001053 235.6605 280.0399 14.30601040787006
0 ORBCOMM FM 22
1 25476U 98053B   13296.02793541  .00000915  00000-0  40060-3 0  9517
2 25476 045.0084 123.1712 0001098 234.7485 265.9033 14.30604425787150
